ORBCOMM FM103           
1 40091U 14040F   25292.95217821  .00001133  00000+0  27848-3 0  9997
2 40091  47.0038 148.5016 0001385 143.4568 216.6412 14.58391880582319
ORBCOMM FM114           
1 41179U 15081A   25292.62777119  .00001377  00000+0  33046-3 0  9993
2 41179  47.0033  59.0138 0002564 211.1914 148.8820 14.58429057522637
ORBCOMM FM119           
1 41180U 15081B   25292.82691907  .00001138  00000+0  27972-3 0  9993
2 41180  47.0013 327.4216 0002057 265.3225  94.7425 14.58368494523918
ORBCOMM FM105           
1 41181U 15081C   25292.86618769  .00000530  00000+0  19393-3 0  9996
2 41181  47.0026 344.3352 0001771 191.1690 168.9151 14.45335352518788
ORBCOMM FM110           
1 41182U 15081D   25292.75640613  .00001559  00000+0  36910-3 0  9994
2 41182  47.0022  57.9334 0001618  47.3389 312.7633 14.58463181522526
ORBCOMM FM118           
1 41183U 15081E   25292.78937223  .00001249  00000+0  30320-3 0  9999
2 41183  47.0045  58.0483 0002447 350.8073   9.2768 14.58422364522639
ORBCOMM FM112           
1 41184U 15081F   25292.79416549  .00001601  00000+0  37779-3 0  9991
2 41184  46.9999 326.6122 0001953 227.7401 132.3319 14.58490035523853
ORBCOMM FM113           
1 41185U 15081G   25292.83972736  .00001391  00000+0  33310-3 0  9995
2 41185  47.0011 326.7420 0001926 240.3282 119.7412 14.58487462523843
